0 COSMOS 2357
1 25368U 98036F   13282.39112322 -.00000009  00000-0 -14183-3 0  1655
2 25368 082.5900 193.1390 0356252 193.5069 290.0916 12.23317313684025
0 COSMOS 2357
1 25368U 98036F   13284.43726895  .00000014  00000-0  30693-4 0  1668
2 25368 082.5899 191.9245 0356321 189.1785 301.2087 12.23317147684276
0 COSMOS 2357
1 25368U 98036F   13286.48207394  .00000025  00000-0  11317-3 0  1677
2 25368 082.5902 190.7108 0356297 184.8587 306.4138 12.23317168684525
0 COSMOS 2357
1 25368U 98036F   13288.83953661  .00000020  00000-0  73557-4 0  1684
2 25368 082.5895 189.3119 0356496 179.8940 248.5294 12.23317133684813
0 COSMOS 2357
1 25368U 98036F   13291.15219602  .00000032  00000-0  16367-3 0  1692
2 25368 082.5893 187.9395 0356482 175.0098 353.3467 12.23317295685095
0 COSMOS 2357
1 25368U 98036F   13293.34992262  .00000013  00000-0  20579-4 0  1707
2 25368 082.5889 186.6353 0356556 170.3721 312.0043 12.23317510685365
0 COSMOS 2357
1 25368U 98036F   13295.39664141 -.00000001  00000-0 -91734-4 0  1717
2 25368 082.5889 185.4206 0356621 166.0535 325.6336 12.23317661685617
